CALSPHERE 1             
1 00900U 64063C   19282.87868038  .00000179  00000-0  18243-3 0  9996
2 00900  90.1546  24.3692 0029155  94.6350  42.9650 13.73281893735928
CALSPHERE 2             
1 00902U 64063E   19282.80057834  .00000035  00000-0  38591-4 0  9995
2 00902  90.1648  26.8992 0020130 115.0135   6.9036 13.52676450526061
LCS 1                   
1 01361U 65034C   19283.10673726 -.00000006  00000-0 -18591-2 0  9998
2 01361  32.1386 215.3254 0007667 261.5895  98.3733  9.89296472968383
TEMPSAT 1               
1 01512U 65065E   19282.88839347  .00000021  00000-0  24017-4 0  9994
2 01512  89.8638 229.2930 0067765 266.5783 152.9500 13.33422544634565
CALSPHERE 4(A)          
1 01520U 65065H   19282.90599906  .00000062  00000-0  10108-3 0  9990
2 01520  90.0423 128.1433 0070804 150.2320 341.6071 13.35796868636612
OPS 5712 (P/L 160)      
1 02826U 67053A   19282.86118033  .00000494  00000-0  14685-3 0  9995
2 02826  69.9282  67.6406 0009149 288.1392  71.8744 14.48838440710497
OPS 5712 (P/L 153)      
1 02874U 67053H   19282.55175901 -.00000013  00000-0  28957-4 0  9997
2 02874  69.9733 308.1579 0005189 145.3773 214.7671 13.96336263665799
SURCAL 150B             
1 02909U 67053J   19282.91120046  .00000664  00000-0  14756-3 0  9998
2 02909  69.9465 102.4810 0005814 324.3141  35.7609 14.61423222720122
RIGIDSPHERE 2 (LCS 4)   
1 05398U 71067E   19282.87547448  .00000155  00000-0  48196-4 0  9998
2 05398  87.6162 293.5665 0064261  24.2103 336.2090 14.33825772523829
